NORAD_CAT_ID,OBJECT_NAME,OBJECT_TYPE,EPOCH,MEAN_MOTION,ECCENTRICITY,INCLINATION,RA_OF_ASC_NODE,ARG_OF_PERICENTER,MEAN_ANOMALY,BSTAR,MEAN_MOTION_DOT,MEAN_MOTION_DDOT,TLE_LINE0,TLE_LINE1,TLE_LINE2,SEMIMAJOR_AXIS,PERIOD,APOGEE,PERIGEE,DECAYED
51129.0,STARLINK-3396,PAYLOAD,2022-02-20 14:00:01,15.73235364,0.0002295,53.219,111.9342,26.2653,205.9943,-7.0187e-05,-0.00010476,0.0,0 STARLINK-3396,1 51129U 22005AB  22051.58334491 -.00010476  00000-0 -70187-4 0  9991,2 51129  53.2190 111.9342 0002295  26.2653 205.9943 15.73235364  3692,6727.794,91.531,351.20300000000015,348.115,0.0
51129.0,STARLINK-3396,PAYLOAD,2022-02-20 22:00:00,15.73197282,0.0002065,53.2187,110.2827,26.7356,294.5001,0.00022713,0.00031372,0.0,0 STARLINK-3396,1 51129U 22005AB  22051.91667824  .00031372  00000-0  22713-3 0  9994,2 51129  53.2187 110.2827 0002065  26.7356 294.5001 15.73197282  6517,6727.903,91.533,351.157,348.379,0.0
51129.0,STARLINK-3396,PAYLOAD,2022-02-21 06:00:00,15.73219562,0.0002111,53.219,108.6334,30.1542,20.002,-0.00041898,-0.00059066,0.0,0 STARLINK-3396,1 51129U 22005AB  22052.25001157 -.00059066  00000-0 -41898-3 0  9990,2 51129  53.2190 108.6334 0002111  30.1542  20.0020 15.73219562  6567,6727.839,91.532,351.125,348.284,0.0
51129.0,STARLINK-3396,PAYLOAD,2022-02-21 20:00:01,15.73167001,0.0002214,53.2191,105.7471,25.4476,90.3775,-0.000119,-0.00017266,0.0,0 STARLINK-3396,1 51129U 22005AB  22052.83335648 -.00017266  00000-0 -11900-3 0  9996,2 51129  53.2191 105.7471 0002214  25.4476  90.3775 15.73167001  6663,6727.989000000001,91.535,351.344,348.365,0.0
51129.0,STARLINK-3396,PAYLOAD,2022-02-21 22:00:00,15.73138904,0.0002176,53.2193,105.3344,26.0602,201.9282,0.00032623,0.00045294,0.0,0 STARLINK-3396,1 51129U 22005AB  22052.91667824  .00045294  00000-0  32623-3 0  9994,2 51129  53.2193 105.3344 0002176  26.0602 201.9282 15.73138904  3711,6728.069,91.537,351.398,348.47,0.0
51129.0,STARLINK-3396,PAYLOAD,2022-02-22 04:00:00,15.73174674,0.0002165,53.2193,104.0971,30.0215,174.6164,0.0002987,0.00041464,0.0,0 STARLINK-3396,1 51129U 22005AB  22053.16667824  .00041464  00000-0  29870-3 0  9997,2 51129  53.2193 104.0971 0002165  30.0215 174.6164 15.73174674  6718,6727.967,91.535,351.289,348.376,0.0
51129.0,STARLINK-3396,PAYLOAD,2022-02-22 14:00:01,15.73180852,0.0002493,53.2188,102.0375,27.4042,18.3867,0.00061434,0.00086426,0.0,0 STARLINK-3396,1 51129U 22005AB  22053.58334491  .00086426  00000-0  61434-3 0  9993,2 51129  53.2188 102.0375 0002493  27.4042  18.3867 15.73180852  3716,6727.95,91.534,351.492,348.13699999999994,0.0
51129.0,STARLINK-3396,PAYLOAD,2022-02-22 22:00:00,15.73235187,0.0002208,53.2187,100.3861,28.9662,105.7843,0.00037001,0.0005171,0.0,0 STARLINK-3396,1 51129U 22005AB  22053.91667824  .00051710  00000-0  37001-3 0  9990,2 51129  53.2187 100.3861 0002208  28.9662 105.7843 15.73235187  3711,6727.795,91.531,351.145,348.1740000000001,0.0
51129.0,STARLINK-3396,PAYLOAD,2022-02-23 06:00:00,15.73270517,0.0002215,53.2192,98.7371,27.6019,196.1307,-0.00038681,-0.00054726,0.0,0 STARLINK-3396,1 51129U 22005AB  22054.25001157 -.00054726  00000-0 -38681-3 0  9996,2 51129  53.2192  98.7371 0002215  27.6019 196.1307 15.73270517  6889,6727.694,91.529,351.0490000000001,348.069,0.0
51129.0,STARLINK-3396,PAYLOAD,2022-02-23 14:00:01,15.7323845,0.0002392,53.2193,97.0892,20.67,292.039,-0.00027112,-0.00038565,0.0,0 STARLINK-3396,1 51129U 22005AB  22054.58334491 -.00038565  00000-0 -27112-3 0  9992,2 51129  53.2193  97.0892 0002392  20.6700 292.0390 15.73238450  3735,6727.786,91.531,351.26,348.041,0.0
51129.0,STARLINK-3396,PAYLOAD,2022-02-23 22:00:00,15.7316375,0.0002206,53.2195,95.4376,24.7176,16.9614,-2.1578e-05,-3.644e-05,0.0,0 STARLINK-3396,1 51129U 22005AB  22054.91667824 -.00003644  00000-0 -21578-4 0  9999,2 51129  53.2195  95.4376 0002206  24.7176  16.9614 15.73163750  3723,6727.999,91.535,351.348,348.379,0.0
51129.0,STARLINK-3396,PAYLOAD,2022-02-24 14:00:01,15.73176298,0.0002591,53.219,92.1411,26.9336,192.5408,0.00056087,0.00078762,0.0,0 STARLINK-3396,1 51129U 22005AB  22055.58334491  .00078762  00000-0  56087-3 0  9997,2 51129  53.2190  92.1411 0002591  26.9336 192.5408 15.73176298  3702,6727.9630000000025,91.535,351.571,348.085,0.0
51129.0,STARLINK-3396,PAYLOAD,2022-02-24 22:00:00,15.7321336,0.0002308,53.219,90.4897,29.2241,279.1902,0.00033337,0.00046455,0.0,0 STARLINK-3396,1 51129U 22005AB  22055.91667824  .00046455  00000-0  33337-3 0  9990,2 51129  53.2190  90.4897 0002308  29.2241 279.1902 15.73213360  3699,6727.857,91.532,351.275,348.1690000000001,0.0
51129.0,STARLINK-3396,PAYLOAD,2022-02-25 00:00:00,15.73233593,0.0002275,53.2191,90.077,29.7411,30.9069,4.7658e-05,6.082e-05,0.0,0 STARLINK-3396,1 51129U 22005AB  22056.00001157  .00006082  00000-0  47658-4 0  9996,2 51129  53.2191  90.0770 0002275  29.7411  30.9069 15.73233593  7155,6727.799,91.531,351.195,348.134,0.0
51129.0,STARLINK-3396,PAYLOAD,2022-02-25 14:00:01,15.73190418,0.000245,53.2194,87.193,20.2085,106.1189,-3.7621e-05,-5.897e-05,0.0,0 STARLINK-3396,1 51129U 22005AB  22056.58334491 -.00005897  00000-0 -37621-4 0  9993,2 51129  53.2194  87.1930 0002450  20.2085 106.1189 15.73190418  7259,6727.922,91.534,351.436,348.139,0.0
51129.0,STARLINK-3396,PAYLOAD,2022-02-25 22:00:00,15.73162356,0.0002243,53.2197,85.5415,21.2808,193.9749,0.00061046,0.00085799,0.0,0 STARLINK-3396,1 51129U 22005AB  22056.91667824  .00085799  00000-0  61046-3 0  9993,2 51129  53.2197  85.5415 0002243  21.2808 193.9749 15.73162356  3719,6728.003000000002,91.535,351.37699999999984,348.358,0.0
51129.0,STARLINK-3396,PAYLOAD,2022-02-26 06:00:00,15.73245044,0.0002373,53.2196,83.8933,21.8371,282.3316,-0.00015677,-0.0002261,0.0,0 STARLINK-3396,1 51129U 22005AB  22057.25001157 -.00022610  00000-0 -15677-3 0  9996,2 51129  53.2196  83.8933 0002373  21.8371 282.3316 15.73245044  7352,6727.767,91.531,351.228,348.035,0.0
51129.0,STARLINK-3396,PAYLOAD,2022-02-26 14:00:01,15.73196666,0.0002479,53.219,82.2447,17.9151,15.2159,-3.017e-05,-4.854e-05,0.0,0 STARLINK-3396,1 51129U 22005AB  22057.58334491 -.00004854  00000-0 -30170-4 0  9998,2 51129  53.2190  82.2447 0002479  17.9151  15.2159 15.73196666  7407,6727.905,91.533,351.43800000000016,348.102,0.0
51129.0,STARLINK-3396,PAYLOAD,2022-02-26 22:00:00,15.73204977,0.0002403,53.2172,80.5843,24.2843,97.5623,-5.6226e-06,-1.411e-05,0.0,0 STARLINK-3396,1 51129U 22005AB  22057.91667824 -.00001411  00000-0 -56226-5 0  9991,2 51129  53.2172  80.5843 0002403  24.2843  97.5623 15.73204977  7464,6727.880999999999,91.533,351.36300000000006,348.129,0.0
51129.0,STARLINK-3396,PAYLOAD,2022-02-27 14:00:01,15.73187625,0.0002434,53.2192,77.2964,13.6575,286.3106,0.00031862,0.00044312,0.0,0 STARLINK-3396,1 51129U 22005AB  22058.58334491  .00044312  00000-0  31862-3 0  9998,2 51129  53.2192  77.2964 0002434  13.6575 286.3106 15.73187625  7566,6727.93,91.534,351.43300000000005,348.158,0.0
51129.0,STARLINK-3396,PAYLOAD,2022-02-27 22:00:00,15.73232468,0.0002271,53.2194,75.6448,18.7872,10.1311,2.5937e-05,3.025e-05,0.0,0 STARLINK-3396,1 51129U 22005AB  22058.91667824  .00003025  00000-0  25937-4 0  9997,2 51129  53.2194  75.6448 0002271  18.7872  10.1311 15.73232468  3712,6727.803000000001,91.531,351.195,348.14,0.0
51129.0,STARLINK-3396,PAYLOAD,2022-02-28 06:00:00,15.73226627,0.000246,53.2193,73.9968,20.7082,97.1754,-0.00069449,-0.00097099,0.0,0 STARLINK-3396,1 51129U 22005AB  22059.25001157 -.00097099  00000-0 -69449-3 0  9997,2 51129  53.2193  73.9968 0002460  20.7082  97.1754 15.73226627  7670,6727.819,91.532,351.339,348.029,0.0
51129.0,STARLINK-3396,PAYLOAD,2022-02-28 14:00:01,15.7317279,0.0002524,53.2187,72.3477,19.2034,187.5987,0.00026569,0.0003679,0.0,0 STARLINK-3396,1 51129U 22005AB  22059.58334491  .00036790  00000-0  26569-3 0  9998,2 51129  53.2187  72.3477 0002524  19.2034 187.5987 15.73172790  7721,6727.973000000001,91.535,351.536,348.14,0.0
51129.0,STARLINK-3396,PAYLOAD,2022-02-28 22:00:00,15.73148448,0.0002301,53.2187,70.6963,24.3491,271.4016,0.00065301,0.00091835,0.0,0 STARLINK-3396,1 51129U 22005AB  22059.91667824  .00091835  00000-0  65301-3 0  9992,2 51129  53.2187  70.6963 0002301  24.3491 271.4016 15.73148448  3690,6728.042,91.536,351.455,348.3590000000001,0.0
51129.0,STARLINK-3396,PAYLOAD,2022-03-01 14:00:01,15.73205648,0.0002479,53.2191,67.3991,18.6192,94.9841,-8.0061e-05,-0.00011846,0.0,0 STARLINK-3396,1 51129U 22005AB  22060.58334491 -.00011846  00000-0 -80061-4 0  9995,2 51129  53.2191  67.3991 0002479  18.6192  94.9841 15.73205648  7884,6727.879,91.533,351.412,348.076,0.0
51129.0,STARLINK-3396,PAYLOAD,2022-03-01 22:00:01,15.73203387,0.0002228,53.2192,65.7476,18.9696,183.6255,-0.00011319,-0.0001648,0.0,0 STARLINK-3396,1 51129U 22005AB  22060.91668981 -.00016480  00000-0 -11319-3 0  9994,2 51129  53.2192  65.7476 0002228  18.9696 183.6255 15.73203387  3710,6727.886,91.533,351.249,348.25199999999984,0.0
51129.0,STARLINK-3396,PAYLOAD,2022-03-02 14:00:01,15.73221019,0.0002479,53.2188,62.4504,15.1313,5.2208,-0.00010056,-0.00014725,0.0,0 STARLINK-3396,1 51129U 22005AB  22061.58334491 -.00014725  00000-0 -10056-3 0  9991,2 51129  53.2188  62.4504 0002479  15.1313   5.2208 15.73221019  3678,6727.835,91.532,351.36800000000005,348.032,0.0
51129.0,STARLINK-3396,PAYLOAD,2022-03-02 20:00:01,15.73194814,0.000217,53.2189,61.2118,15.678,341.3914,-0.00010876,-0.00015854,0.0,0 STARLINK-3396,1 51129U 22005AB  22061.83334491 -.00015854  00000-0 -10876-3 0  9993,2 51129  53.2189  61.2118 0002170  15.6780 341.3914 15.73194814  8077,6727.91,91.533,351.235,348.315,0.0
51129.0,STARLINK-3396,PAYLOAD,2022-03-02 22:00:00,15.73167827,0.0002142,53.219,60.7992,16.0076,93.3002,0.00026329,0.00036442,0.0,0 STARLINK-3396,1 51129U 22005AB  22061.91667824  .00036442  00000-0  26329-3 0  9995,2 51129  53.2190  60.7992 0002142  16.0076  93.3002 15.73167827  3694,6727.986999999999,91.535,351.293,348.411,0.0
